[ {"OBJECT_NAME": "BEIDOU-3 M28 (C50)", "NORAD_CAT_ID": 58654, "MEAN_MOTION": 1.86229875, "ECCENTRICITY": 0.0004955, "INCLINATION": 55.6646, "RA_OF_ASC_NODE": 65.6851, "ARG_OF_PERICENTER": 304.1941, "MEAN_ANOMALY": 55.7723, "BSTAR": 0.0, "EPOCH": "2026-03-08T21:18:54"}, {"OBJECT_NAME": "BEIDOU-3 G1 (C59)", "NORAD_CAT_ID": 43683, "MEAN_MOTION": 1.00266425, "ECCENTRICITY": 0.0001962, "INCLINATION": 2.8289, "RA_OF_ASC_NODE": 100.151, "ARG_OF_PERICENTER": 9.6185, "MEAN_ANOMALY": 253.9096, "BSTAR": 0.0, "EPOCH": "2026-03-12T03:35:51"}, {"OBJECT_NAME": "BEIDOU-3 M7 (C27)", "NORAD_CAT_ID": 43107, "MEAN_MOTION": 1.86232563, "ECCENTRICITY": 0.0004805, "INCLINATION": 54.4158, "RA_OF_ASC_NODE": 305.7741, "ARG_OF_PERICENTER": 71.6026, "MEAN_ANOMALY": 288.499, "BSTAR": 0.0, "EPOCH": "2026-03-10T00:19:40"}, {"OBJECT_NAME": "BEIDOU-3 M26 (C48)", "NORAD_CAT_ID": 58655, "MEAN_MOTION": 1.86229785, "ECCENTRICITY": 0.0005735, "INCLINATION": 55.668, "RA_OF_ASC_NODE": 65.6239, "ARG_OF_PERICENTER": 290.1156, "MEAN_ANOMALY": 69.838, "BSTAR": 0.0, "EPOCH": "2026-03-10T07:06:56"}, {"OBJECT_NAME": "BEIDOU-3 M17 (C36)", "NORAD_CAT_ID": 43706, "MEAN_MOTION": 1.86228516, "ECCENTRICITY": 0.0007231, "INCLINATION": 54.1708, "RA_OF_ASC_NODE": 185.6435, "ARG_OF_PERICENTER": 296.136, "MEAN_ANOMALY": 71.6984, "BSTAR": 0.0, "EPOCH": "2026-03-10T12:31:53"}, {"OBJECT_NAME": "BEIDOU-3 M8 (C28)", "NORAD_CAT_ID": 43108, "MEAN_MOTION": 1.86231147, "ECCENTRICITY": 0.0002959, "INCLINATION": 54.4073, "RA_OF_ASC_NODE": 305.7209, "ARG_OF_PERICENTER": 294.9482, "MEAN_ANOMALY": 65.0714, "BSTAR": 0.0, "EPOCH": "2026-03-11T00:47:45"}, {"OBJECT_NAME": "BEIDOU-3 M25 (C47)", "NORAD_CAT_ID": 61186, "MEAN_MOTION": 1.86230354, "ECCENTRICITY": 0.0004199, "INCLINATION": 54.5595, "RA_OF_ASC_NODE": 305.6398, "ARG_OF_PERICENTER": 319.4347, "MEAN_ANOMALY": 218.4721, "BSTAR": 0.0, "EPOCH": "2026-03-11T11:04:14"}, {"OBJECT_NAME": "BEIDOU-3 M18 (C37)", "NORAD_CAT_ID": 43707, "MEAN_MOTION": 1.86226688, "ECCENTRICITY": 0.0006118, "INCLINATION": 54.1721, "RA_OF_ASC_NODE": 185.6403, "ARG_OF_PERICENTER": 338.6665, "MEAN_ANOMALY": 21.2962, "BSTAR": 0.0, "EPOCH": "2026-03-10T08:56:44"}, {"OBJECT_NAME": "BEIDOU-3 M4 (C22)", "NORAD_CAT_ID": 43207, "MEAN_MOTION": 1.86231267, "ECCENTRICITY": 0.0006902, "INCLINATION": 56.5636, "RA_OF_ASC_NODE": 66.4744, "ARG_OF_PERICENTER": 349.8264, "MEAN_ANOMALY": 10.1736, "BSTAR": 0.0, "EPOCH": "2026-03-08T06:05:16"}, {"OBJECT_NAME": "BEIDOU-3 M27 (C49)", "NORAD_CAT_ID": 61187, "MEAN_MOTION": 1.86230504, "ECCENTRICITY": 0.0002984, "INCLINATION": 54.5553, "RA_OF_ASC_NODE": 305.6299, "ARG_OF_PERICENTER": 21.4848, "MEAN_ANOMALY": 157.6554, "BSTAR": 0.0, "EPOCH": "2026-03-11T06:16:56"}, {"OBJECT_NAME": "BEIDOU-3 M3 (C21)", "NORAD_CAT_ID": 43208, "MEAN_MOTION": 1.86231362, "ECCENTRICITY": 0.0009989, "INCLINATION": 56.564, "RA_OF_ASC_NODE": 66.4409, "ARG_OF_PERICENTER": 319.4901, "MEAN_ANOMALY": 40.4501, "BSTAR": 0.0, "EPOCH": "2026-03-09T09:27:23"}, {"OBJECT_NAME": "BEIDOU-2 G5 (C05)", "NORAD_CAT_ID": 38091, "MEAN_MOTION": 1.00269328, "ECCENTRICITY": 0.0013738, "INCLINATION": 3.3306, "RA_OF_ASC_NODE": 70.2629, "ARG_OF_PERICENTER": 256.6832, "MEAN_ANOMALY": 317.5918, "BSTAR": 0.0, "EPOCH": "2026-03-12T03:43:55"}]