BEIDOU-2 G5             
1 38091U 12008A   26071.15550438  .00000059  00000+0  00000+0 0  9991
2 38091   3.3306  70.2629 0013738 256.6832 317.5918  1.00269328 51391
BEIDOU-3 M7             
1 43107U 18003A   26069.01366214 -.00000054  00000+0  00000+0 0  9991
2 43107  54.4158 305.7741 0004805  71.6026 288.4990  1.86232563 55501
BEIDOU-3 M8             
1 43108U 18003B   26070.03317042 -.00000046  00000+0  00000+0 0  9992
2 43108  54.4073 305.7209 0002959 294.9482  65.0714  1.86231147 55534
BEIDOU-3 M4             
1 43207U 18018A   26067.25366492 -.00000032  00000+0  00000+0 0  9996
2 43207  56.5636  66.4744 0006902 349.8264  10.1736  1.86231267 54860
BEIDOU-3 M3             
1 43208U 18018B   26068.39402118 -.00000023  00000+0  00000+0 0  9999
2 43208  56.5640  66.4409 0009989 319.4901  40.4501  1.86231362 54887
BEIDOU-3 G1             
1 43683U 18085A   26071.14990471 -.00000279  00000+0  00000+0 0  9994
2 43683   2.8289 100.1510 0001962   9.6185 253.9096  1.00266425 27087
BEIDOU-3 M17            
1 43706U 18093A   26069.52214490  .00000002  00000+0  00000+0 0  9991
2 43706  54.1708 185.6435 0007231 296.1360  71.6984  1.86228516 49703
BEIDOU-3 M18            
1 43707U 18093B   26069.37273597  .00000003  00000+0  00000+0 0  9999
2 43707  54.1721 185.6403 0006118 338.6665  21.2962  1.86226688 49690
BEIDOU-3 M28            
1 58654U 23207A   26067.88812957 -.00000031  00000+0  00000+0 0  9994
2 58654  55.6646  65.6851 0004955 304.1941  55.7723  1.86229875 14976
BEIDOU-3 M26            
1 58655U 23207B   26069.29648568 -.00000019  00000+0  00000+0 0  9993
2 58655  55.6680  65.6239 0005735 290.1156  69.8380  1.86229785 14980
BEIDOU-3 M25            
1 61186U 24168B   26070.46127729 -.00000042  00000+0  00000+0 0  9991
2 61186  54.5595 305.6398 0004199 319.4347 218.4721  1.86230354  9966
BEIDOU-3 M27            
1 61187U 24168C   26070.26176976 -.00000043  00000+0  00000+0 0  9999
2 61187  54.5553 305.6299 0002984  21.4848 157.6554  1.86230504  7432
